[{"OBJECT_NAME":"STARLINK-35880","OBJECT_ID":"2025-303AA","EPOCH":"2026-03-09T01:45:38.939040","MEAN_MOTION":15.2758041,"ECCENTRICITY":0.00015817,"INCLINATION":43.0015,"RA_OF_ASC_NODE":313.9591,"ARG_OF_PERICENTER":259.0378,"MEAN_ANOMALY":101.0296,"EPHEMERIS_TYPE":0,"CLASSIFICATION_TYPE":"U","NORAD_CAT_ID":67187,"ELEMENT_SET_NO":999,"REV_AT_EPOCH":1264,"BSTAR":0.0012079101,"MEAN_MOTION_DOT":0.00033127,"MEAN_MOTION_DDOT":0},{"OBJECT_NAME":"CZ-6A DEB","OBJECT_ID":"2022-151NB","EPOCH":"2026-03-09T18:26:17.609568","MEAN_MOTION":15.22372787,"ECCENTRICITY":0.00267955,"INCLINATION":98.6489,"RA_OF_ASC_NODE":154.0342,"ARG_OF_PERICENTER":180.4296,"MEAN_ANOMALY":179.6918,"EPHEMERIS_TYPE":0,"CLASSIFICATION_TYPE":"U","NORAD_CAT_ID":54601,"ELEMENT_SET_NO":999,"REV_AT_EPOCH":17694,"BSTAR":0.011449911,"MEAN_MOTION_DOT":0.00276508,"MEAN_MOTION_DDOT":0}]
